[{"OBJECT_NAME":"STARLINK-4656","OBJECT_ID":"2022-107AX","EPOCH":"2026-03-09T20:03:24.504192","MEAN_MOTION":15.08816927,"ECCENTRICITY":0.0001686,"INCLINATION":53.2163,"RA_OF_ASC_NODE":263.5975,"ARG_OF_PERICENTER":82.845,"MEAN_ANOMALY":277.2733,"EPHEMERIS_TYPE":0,"CLASSIFICATION_TYPE":"U","NORAD_CAT_ID":53745,"ELEMENT_SET_NO":999,"REV_AT_EPOCH":19461,"BSTAR":6.1801e-8,"MEAN_MOTION_DOT":-2.87e-6,"MEAN_MOTION_DDOT":0},{"OBJECT_NAME":"COSMOS 374 DEB","OBJECT_ID":"1970-089DD","EPOCH":"2026-03-09T00:30:31.749120","MEAN_MOTION":14.57132291,"ECCENTRICITY":0.02939814,"INCLINATION":62.3835,"RA_OF_ASC_NODE":49.0638,"ARG_OF_PERICENTER":167.8535,"MEAN_ANOMALY":192.9834,"EPHEMERIS_TYPE":0,"CLASSIFICATION_TYPE":"U","NORAD_CAT_ID":18517,"ELEMENT_SET_NO":999,"REV_AT_EPOCH":85937,"BSTAR":0.0016091669,"MEAN_MOTION_DOT":0.00013075,"MEAN_MOTION_DDOT":0}]
